[{"OBJECT_NAME":"STARLINK-36840","OBJECT_ID":"2026-034A","EPOCH":"2026-03-21T22:00:00.999936","MEAN_MOTION":15.68103355,"ECCENTRICITY":0.00011874,"INCLINATION":53.1591,"RA_OF_ASC_NODE":150.2259,"ARG_OF_PERICENTER":73.4515,"MEAN_ANOMALY":123.3767,"EPHEMERIS_TYPE":0,"CLASSIFICATION_TYPE":"U","NORAD_CAT_ID":67850,"ELEMENT_SET_NO":999,"REV_AT_EPOCH":587,"BSTAR":-0.019753319,"MEAN_MOTION_DOT":-0.01976968,"MEAN_MOTION_DDOT":0},{"OBJECT_NAME":"STARLINK-36348","OBJECT_ID":"2026-034B","EPOCH":"2026-03-21T22:00:00.999936","MEAN_MOTION":15.63867362,"ECCENTRICITY":0.00011672,"INCLINATION":53.1586,"RA_OF_ASC_NODE":150.3276,"ARG_OF_PERICENTER":66.7618,"MEAN_ANOMALY":80.148,"EPHEMERIS_TYPE":0,"CLASSIFICATION_TYPE":"U","NORAD_CAT_ID":67851,"ELEMENT_SET_NO":999,"REV_AT_EPOCH":582,"BSTAR":-0.023231812,"MEAN_MOTION_DOT":-0.0195991,"MEAN_MOTION_DDOT":0},{"OBJECT_NAME":"STARLINK-36276","OBJECT_ID":"2026-034C","EPOCH":"2026-03-21T22:00:00.999936","MEAN_MOTION":15.62651371,"ECCENTRICITY":0.00011715,"INCLINATION":53.1587,"RA_OF_ASC_NODE":150.3562,"ARG_OF_PERICENTER":65.4075,"MEAN_ANOMALY":67.3993,"EPHEMERIS_TYPE":0,"CLASSIFICATION_TYPE":"U","NORAD_CAT_ID":67852,"ELEMENT_SET_NO":999,"REV_AT_EPOCH":582,"BSTAR":-0.024334302,"MEAN_MOTION_DOT":-0.01956661,"MEAN_MOTION_DDOT":0},{"OBJECT_NAME":"STARLINK-36785","OBJECT_ID":"2026-034D","EPOCH":"2026-03-21T11:42:59.755104","MEAN_MOTION":15.80934466,"ECCENTRICITY":6.184e-5,"INCLINATION":53.1581,"RA_OF_ASC_NODE":152.2019,"ARG_OF_PERICENTER":48.4129,"MEAN_ANOMALY":311.6946,"EPHEMERIS_TYPE":0,"CLASSIFICATION_TYPE":"U","NORAD_CAT_ID":67853,"ELEMENT_SET_NO":999,"REV_AT_EPOCH":580,"BSTAR":0.0013257012,"MEAN_MOTION_DOT":0.0027007,"MEAN_MOTION_DDOT":0},{"OBJECT_NAME":"STARLINK-36608","OBJECT_ID":"2026-034E","EPOCH":"2026-03-21T13:12:57.288384","MEAN_MOTION":15.80922269,"ECCENTRICITY":5.51e-5,"INCLINATION":53.1573,"RA_OF_ASC_NODE":151.8797,"ARG_OF_PERICENTER":52.0065,"MEAN_ANOMALY":308.1007,"EPHEMERIS_TYPE":0,"CLASSIFICATION_TYPE":"U","NORAD_CAT_ID":67854,"ELEMENT_SET_NO":999,"REV_AT_EPOCH":580,"BSTAR":0.0010701582,"MEAN_MOTION_DOT":0.00216387,"MEAN_MOTION_DDOT":0},{"OBJECT_NAME":"STARLINK-36838","OBJECT_ID":"2026-034F","EPOCH":"2026-03-21T11:40:50.365920","MEAN_MOTION":15.80927171,"ECCENTRICITY":0.00017069,"INCLINATION":53.1586,"RA_OF_ASC_NODE":152.1903,"ARG_OF_PERICENTER":88.2122,"MEAN_ANOMALY":271.9096,"EPHEMERIS_TYPE":0,"CLASSIFICATION_TYPE":"U","NORAD_CAT_ID":67855,"ELEMENT_SET_NO":999,"REV_AT_EPOCH":580,"BSTAR":0.00090771582,"MEAN_MOTION_DOT":0.00182754,"MEAN_MOTION_DDOT":0},{"OBJECT_NAME":"STARLINK-36843","OBJECT_ID":"2026-034G","EPOCH":"2026-03-21T22:00:00.999936","MEAN_MOTION":15.70300849,"ECCENTRICITY":0.00011287,"INCLINATION":53.1592,"RA_OF_ASC_NODE":150.1183,"ARG_OF_PERICENTER":79.0236,"MEAN_ANOMALY":169.8192,"EPHEMERIS_TYPE":0,"CLASSIFICATION_TYPE":"U","NORAD_CAT_ID":67856,"ELEMENT_SET_NO":999,"REV_AT_EPOCH":582,"BSTAR":-0.018015567,"MEAN_MOTION_DOT":-0.01976382,"MEAN_MOTION_DDOT":0},{"OBJECT_NAME":"STARLINK-36828","OBJECT_ID":"2026-034H","EPOCH":"2026-03-21T10:08:42.571680","MEAN_MOTION":15.80907424,"ECCENTRICITY":5.694e-5,"INCLINATION":53.158,"RA_OF_ASC_NODE":152.5037,"ARG_OF_PERICENTER":65.635,"MEAN_ANOMALY":294.4732,"EPHEMERIS_TYPE":0,"CLASSIFICATION_TYPE":"U","NORAD_CAT_ID":67857,"ELEMENT_SET_NO":999,"REV_AT_EPOCH":579,"BSTAR":0.00071615991,"MEAN_MOTION_DOT":0.00143243,"MEAN_MOTION_DDOT":0},{"OBJECT_NAME":"STARLINK-36837","OBJECT_ID":"2026-034J","EPOCH":"2026-03-21T22:00:00.999936","MEAN_MOTION":15.71418263,"ECCENTRICITY":0.00010552,"INCLINATION":53.1594,"RA_OF_ASC_NODE":150.0891,"ARG_OF_PERICENTER":76.6439,"MEAN_ANOMALY":186.1297,"EPHEMERIS_TYPE":0,"CLASSIFICATION_TYPE":"U","NORAD_CAT_ID":67858,"ELEMENT_SET_NO":999,"REV_AT_EPOCH":582,"BSTAR":-0.01719676,"MEAN_MOTION_DOT":-0.01977802,"MEAN_MOTION_DDOT":0},{"OBJECT_NAME":"STARLINK-36393","OBJECT_ID":"2026-034K","EPOCH":"2026-03-21T11:36:30.709728","MEAN_MOTION":15.80874017,"ECCENTRICITY":0.00012266,"INCLINATION":53.1586,"RA_OF_ASC_NODE":152.1702,"ARG_OF_PERICENTER":73.1412,"MEAN_ANOMALY":286.9746,"EPHEMERIS_TYPE":0,"CLASSIFICATION_TYPE":"U","NORAD_CAT_ID":67859,"ELEMENT_SET_NO":999,"REV_AT_EPOCH":580,"BSTAR":0.0013736446,"MEAN_MOTION_DOT":0.00279382,"MEAN_MOTION_DDOT":0},{"OBJECT_NAME":"STARLINK-35873","OBJECT_ID":"2026-034L","EPOCH":"2026-03-21T11:35:25.885536","MEAN_MOTION":15.80908511,"ECCENTRICITY":8.054e-5,"INCLINATION":53.1588,"RA_OF_ASC_NODE":152.1655,"ARG_OF_PERICENTER":131.0642,"MEAN_ANOMALY":229.045,"EPHEMERIS_TYPE":0,"CLASSIFICATION_TYPE":"U","NORAD_CAT_ID":67860,"ELEMENT_SET_NO":999,"REV_AT_EPOCH":583,"BSTAR":0.001113523,"MEAN_MOTION_DOT":0.00225272,"MEAN_MOTION_DDOT":0},{"OBJECT_NAME":"STARLINK-36325","OBJECT_ID":"2026-034M","EPOCH":"2026-03-21T11:34:21.001728","MEAN_MOTION":15.80922494,"ECCENTRICITY":7.795e-5,"INCLINATION":53.1592,"RA_OF_ASC_NODE":152.1604,"ARG_OF_PERICENTER":143.8934,"MEAN_ANOMALY":216.2142,"EPHEMERIS_TYPE":0,"CLASSIFICATION_TYPE":"U","NORAD_CAT_ID":67861,"ELEMENT_SET_NO":999,"REV_AT_EPOCH":580,"BSTAR":0.00080673652,"MEAN_MOTION_DOT":0.00161913,"MEAN_MOTION_DDOT":0},{"OBJECT_NAME":"STARLINK-36332","OBJECT_ID":"2026-034N","EPOCH":"2026-03-21T13:04:18.692256","MEAN_MOTION":15.80938116,"ECCENTRICITY":4.991e-5,"INCLINATION":53.1573,"RA_OF_ASC_NODE":151.8386,"ARG_OF_PERICENTER":96.459,"MEAN_ANOMALY":263.649,"EPHEMERIS_TYPE":0,"CLASSIFICATION_TYPE":"U","NORAD_CAT_ID":67862,"ELEMENT_SET_NO":999,"REV_AT_EPOCH":581,"BSTAR":0.0012647314,"MEAN_MOTION_DOT":0.00257276,"MEAN_MOTION_DDOT":0},{"OBJECT_NAME":"STARLINK-36835","OBJECT_ID":"2026-034P","EPOCH":"2026-03-21T11:32:11.435424","MEAN_MOTION":15.80921271,"ECCENTRICITY":0.00011694,"INCLINATION":53.1588,"RA_OF_ASC_NODE":152.1497,"ARG_OF_PERICENTER":92.6396,"MEAN_ANOMALY":267.4761,"EPHEMERIS_TYPE":0,"CLASSIFICATION_TYPE":"U","NORAD_CAT_ID":67863,"ELEMENT_SET_NO":999,"REV_AT_EPOCH":580,"BSTAR":0.00077787598,"MEAN_MOTION_DOT":0.00155978,"MEAN_MOTION_DDOT":0},{"OBJECT_NAME":"STARLINK-36831","OBJECT_ID":"2026-034Q","EPOCH":"2026-03-21T11:31:06.994848","MEAN_MOTION":15.80951416,"ECCENTRICITY":0.00020817,"INCLINATION":53.1584,"RA_OF_ASC_NODE":152.1452,"ARG_OF_PERICENTER":65.7642,"MEAN_ANOMALY":294.3598,"EPHEMERIS_TYPE":0,"CLASSIFICATION_TYPE":"U","NORAD_CAT_ID":67864,"ELEMENT_SET_NO":999,"REV_AT_EPOCH":580,"BSTAR":0.0013952223,"MEAN_MOTION_DOT":0.00284984,"MEAN_MOTION_DDOT":0},{"OBJECT_NAME":"STARLINK-36738","OBJECT_ID":"2026-034R","EPOCH":"2026-03-21T14:32:06.650592","MEAN_MOTION":15.80946678,"ECCENTRICITY":0.00014338,"INCLINATION":53.1585,"RA_OF_ASC_NODE":151.5063,"ARG_OF_PERICENTER":79.5716,"MEAN_ANOMALY":280.5469,"EPHEMERIS_TYPE":0,"CLASSIFICATION_TYPE":"U","NORAD_CAT_ID":67865,"ELEMENT_SET_NO":999,"REV_AT_EPOCH":582,"BSTAR":0.0015147811,"MEAN_MOTION_DOT":0.00310315,"MEAN_MOTION_DDOT":0}]
