STARLINK-36840          
1 67850U 26034A   26080.91667824 -.01976968  00000+0 -19753-1 0  9993
2 67850  53.1591 150.2259 0001187  73.4515 123.3767 15.68103355  5874
STARLINK-36348          
1 67851U 26034B   26080.91667824 -.01959910  00000+0 -23232-1 0  9999
2 67851  53.1586 150.3276 0001167  66.7618  80.1480 15.63867362  5823
STARLINK-36276          
1 67852U 26034C   26080.91667824 -.01956661  00000+0 -24334-1 0  9994
2 67852  53.1587 150.3562 0001171  65.4075  67.3993 15.62651371  5827
STARLINK-36785          
1 67853U 26034D   26080.48819161  .00270070  00000+0  13257-2 0  9993
2 67853  53.1581 152.2019 0000618  48.4129 311.6946 15.80934466  5806
STARLINK-36608          
1 67854U 26034E   26080.55066306  .00216387  00000+0  10702-2 0  9990
2 67854  53.1573 151.8797 0000551  52.0065 308.1007 15.80922269  5809
STARLINK-36838          
1 67855U 26034F   26080.48669405  .00182754  00000+0  90772-3 0  9998
2 67855  53.1586 152.1903 0001706  88.2122 271.9096 15.80927171  5807
STARLINK-36843          
1 67856U 26034G   26080.91667824 -.01976382  00000+0 -18016-1 0  9990
2 67856  53.1592 150.1183 0001128  79.0236 169.8192 15.70300849  5825
STARLINK-36828          
1 67857U 26034H   26080.42271495  .00143243  00000+0  71616-3 0  9998
2 67857  53.1580 152.5037 0000569  65.6350 294.4732 15.80907424  5797
STARLINK-36837          
1 67858U 26034J   26080.91667824 -.01977802  00000+0 -17197-1 0  9999
2 67858  53.1594 150.0891 0001055  76.6439 186.1297 15.71418263  5820
STARLINK-36393          
1 67859U 26034K   26080.48368877  .00279382  00000+0  13736-2 0  9999
2 67859  53.1586 152.1702 0001226  73.1412 286.9746 15.80874017  5808
STARLINK-35873          
1 67860U 26034L   26080.48293849  .00225272  00000+0  11135-2 0  9997
2 67860  53.1588 152.1655 0000805 131.0642 229.0450 15.80908511  5830
STARLINK-36325          
1 67861U 26034M   26080.48218752  .00161913  00000+0  80674-3 0  9994
2 67861  53.1592 152.1604 0000779 143.8934 216.2142 15.80922494  5804
STARLINK-36332          
1 67862U 26034N   26080.54466079  .00257276  00000+0  12647-2 0  9991
2 67862  53.1573 151.8386 0000499  96.4590 263.6490 15.80938116  5818
STARLINK-36835          
1 67863U 26034P   26080.48068791  .00155978  00000+0  77788-3 0  9998
2 67863  53.1588 152.1497 0001169  92.6396 267.4761 15.80921271  5805
STARLINK-36831          
1 67864U 26034Q   26080.47994207  .00284984  00000+0  13952-2 0  9990
2 67864  53.1584 152.1452 0002081  65.7642 294.3598 15.80951416  5803
STARLINK-36738          
1 67865U 26034R   26080.60563253  .00310315  00000+0  15148-2 0  9996
2 67865  53.1585 151.5063 0001433  79.5716 280.5469 15.80946678  5821
